EARTHCARE               
1 59908U 24101A   24156.34315197  .00019747  00000+0  29214-3 0  9998
2 59908  96.9775 284.4592 0004666 120.6387 239.5329 15.55317590   991
